{"type":"FeatureCollection","features":[{"type":"Feature","properties":{"name":"Vietnam","adm0_a3":"VNM","kind":"country","scalerank":0},"geometry":{"type":"Point","coordinates":[108.28,14.06]}},{"type":"Feature","properties":{"name":"Cambodia","adm0_a3":"KHM","kind":"country","scalerank":0},"geometry":{"type":"Point","coordinates":[104.99,12.57]}},{"type":"Feature","properties":{"name":"Laos","adm0_a3":"LAO","kind":"country","scalerank":0},"geometry":{"type":"Point","coordinates":[103.76,18.2]}},{"type":"Feature","properties":{"name":"Thailand","adm0_a3":"THA","kind":"country","scalerank":0},"geometry":{"type":"Point","coordinates":[101.0,15.5]}},{"type":"Feature","properties":{"name":"Myanmar","adm0_a3":"MMR","kind":"country","scalerank":0},"geometry":{"type":"Point","coordinates":[96.5,21.0]}},{"type":"Feature","properties":{"name":"Malaysia","adm0_a3":"MYS","kind":"country","scalerank":0},"geometry":{"type":"Point","coordinates":[102.3,4.2]}},{"type":"Feature","properties":{"name":"China","adm0_a3":"CHN","kind":"country","scalerank":0},"geometry":{"type":"Point","coordinates":[105.5,23.8]}},{"type":"Feature","properties":{"name":"Sóc Trăng","adm0_a3":"VNM","kind":"province","scalerank":7},"geometry":{"type":"Point","coordinates":[106.614402,8.721361]}},{"type":"Feature","properties":{"name":"Bến Tre","adm0_a3":"VNM","kind":"province","scalerank":7},"geometry":{"type":"Point","coordinates":[106.483532,9.893524]}},{"type":"Feature","properties":{"name":"Tiền Giang","adm0_a3":"VNM","kind":"province","scalerank":7},"geometry":{"type":"Point","coordinates":[106.635512,10.269087]}},{"type":"Feature","properties":{"name":"Kiên Giang","adm0_a3":"VNM","kind":"province","scalerank":7},"geometry":{"type":"Point","coordinates":[103.966037,10.305356]}},{"type":"Feature","properties":{"name":"Bà Rịa - Vũng Tàu","adm0_a3":"VNM","kind":"province","scalerank":7},"geometry":{"type":"Point","coordinates":[107.142768,10.396897]}},{"type":"Feature","properties":{"name":"Hồ Chí Minh city","adm0_a3":"VNM","kind":"province","scalerank":7},"geometry":{"type":"Point","coordinates":[106.926011,10.409025]}},{"type":"Feature","properties":{"name":"Bình Thuận","adm0_a3":"VNM","kind":"province","scalerank":7},"geometry":{"type":"Point","coordinates":[108.946353,10.526414]}},{"type":"Feature","properties":{"name":"Khánh Hòa","adm0_a3":"VNM","kind":"province","scalerank":7},"geometry":{"type":"Point","coordinates":[109.35855,12.604888]}},{"type":"Feature","properties":{"name":"Quảng Ninh","adm0_a3":"VNM","kind":"province","scalerank":7},"geometry":{"type":"Point","coordinates":[107.362729,20.817024]}},{"type":"Feature","properties":{"name":"Lâm Đồng","adm0_a3":"VNM","kind":"province","scalerank":7},"geometry":{"type":"Point","coordinates":[107.999873,11.536201]}},{"type":"Feature","properties":{"name":"Ninh Thuận","adm0_a3":"VNM","kind":"province","scalerank":7},"geometry":{"type":"Point","coordinates":[108.925088,11.624203]}},{"type":"Feature","properties":{"name":"Phú Yên","adm0_a3":"VNM","kind":"province","scalerank":7},"geometry":{"type":"Point","coordinates":[109.064253,13.164652]}},{"type":"Feature","properties":{"name":"Bình Dương","adm0_a3":"VNM","kind":"province","scalerank":7},"geometry":{"type":"Point","coordinates":[106.658637,11.138222]}},{"type":"Feature","properties":{"name":"Bình Phước","adm0_a3":"VNM","kind":"province","scalerank":7},"geometry":{"type":"Point","coordinates":[106.897124,11.680495]}},{"type":"Feature","properties":{"name":"Bình Định","adm0_a3":"VNM","kind":"province","scalerank":7},"geometry":{"type":"Point","coordinates":[108.971158,14.107505]}},{"type":"Feature","properties":{"name":"Kon Tum","adm0_a3":"VNM","kind":"province","scalerank":7},"geometry":{"type":"Point","coordinates":[107.968997,14.745055]}},{"type":"Feature","properties":{"name":"Quàng Nam","adm0_a3":"VNM","kind":"province","scalerank":7},"geometry":{"type":"Point","coordinates":[107.955277,15.65346]}},{"type":"Feature","properties":{"name":"Quảng Ngãi","adm0_a3":"VNM","kind":"province","scalerank":7},"geometry":{"type":"Point","coordinates":[108.685723,14.997057]}},{"type":"Feature","properties":{"name":"Quảng Trị","adm0_a3":"VNM","kind":"province","scalerank":7},"geometry":{"type":"Point","coordinates":[106.972597,16.720356]}},{"type":"Feature","properties":{"name":"Thừa Thiên - Huế","adm0_a3":"VNM","kind":"province","scalerank":7},"geometry":{"type":"Point","coordinates":[107.633617,16.312043]}},{"type":"Feature","properties":{"name":"Đà Nẵng","adm0_a3":"VNM","kind":"province","scalerank":7},"geometry":{"type":"Point","coordinates":[108.102399,16.091248]}},{"type":"Feature","properties":{"name":"Tây Ninh","adm0_a3":"VNM","kind":"province","scalerank":7},"geometry":{"type":"Point","coordinates":[106.140168,11.412078]}},{"type":"Feature","properties":{"name":"Điện Biên","adm0_a3":"VNM","kind":"province","scalerank":7},"geometry":{"type":"Point","coordinates":[102.960181,21.314629]}},{"type":"Feature","properties":{"name":"Đông Bắc","adm0_a3":"VNM","kind":"province","scalerank":7},"geometry":{"type":"Point","coordinates":[105.874318,22.147579]}},{"type":"Feature","properties":{"name":"Thái Nguyên","adm0_a3":"VNM","kind":"province","scalerank":7},"geometry":{"type":"Point","coordinates":[105.887341,21.581151]}},{"type":"Feature","properties":{"name":"Lào Cai","adm0_a3":"VNM","kind":"province","scalerank":7},"geometry":{"type":"Point","coordinates":[104.096365,22.355882]}},{"type":"Feature","properties":{"name":"Lạng Sơn","adm0_a3":"VNM","kind":"province","scalerank":7},"geometry":{"type":"Point","coordinates":[106.723853,21.782624]}},{"type":"Feature","properties":{"name":"Son La","adm0_a3":"VNM","kind":"province","scalerank":7},"geometry":{"type":"Point","coordinates":[104.158661,21.301067]}},{"type":"Feature","properties":{"name":"Thanh Hóa","adm0_a3":"VNM","kind":"province","scalerank":7},"geometry":{"type":"Point","coordinates":[105.215211,20.09174]}},{"type":"Feature","properties":{"name":"Tuyên Quang","adm0_a3":"VNM","kind":"province","scalerank":7},"geometry":{"type":"Point","coordinates":[105.2295,22.131008]}},{"type":"Feature","properties":{"name":"Yên Bái","adm0_a3":"VNM","kind":"province","scalerank":7},"geometry":{"type":"Point","coordinates":[104.511611,21.748446]}},{"type":"Feature","properties":{"name":"Hòa Bình","adm0_a3":"VNM","kind":"province","scalerank":7},"geometry":{"type":"Point","coordinates":[105.339803,20.729168]}},{"type":"Feature","properties":{"name":"Hải Dương","adm0_a3":"VNM","kind":"province","scalerank":7},"geometry":{"type":"Point","coordinates":[106.363642,20.961327]}},{"type":"Feature","properties":{"name":"Đồng Bằng Sông Hồng","adm0_a3":"VNM","kind":"province","scalerank":7},"geometry":{"type":"Point","coordinates":[106.076347,20.808484]}},{"type":"Feature","properties":{"name":"Bắc Ninh","adm0_a3":"VNM","kind":"province","scalerank":7},"geometry":{"type":"Point","coordinates":[106.116758,21.097981]}},{"type":"Feature","properties":{"name":"Vĩnh Phúc","adm0_a3":"VNM","kind":"province","scalerank":7},"geometry":{"type":"Point","coordinates":[105.548653,21.345542]}},{"type":"Feature","properties":{"name":"Ninh Bình","adm0_a3":"VNM","kind":"province","scalerank":7},"geometry":{"type":"Point","coordinates":[105.852485,20.272189]}},{"type":"Feature","properties":{"name":"Hà Nam","adm0_a3":"VNM","kind":"province","scalerank":7},"geometry":{"type":"Point","coordinates":[105.985138,20.556869]}},{"type":"Feature","properties":{"name":"Nam Định","adm0_a3":"VNM","kind":"province","scalerank":7},"geometry":{"type":"Point","coordinates":[106.253752,20.234333]}},{"type":"Feature","properties":{"name":"Phú Thọ","adm0_a3":"VNM","kind":"province","scalerank":7},"geometry":{"type":"Point","coordinates":[105.143148,21.312683]}},{"type":"Feature","properties":{"name":"Bắc Giang","adm0_a3":"VNM","kind":"province","scalerank":7},"geometry":{"type":"Point","coordinates":[106.493066,21.351231]}},{"type":"Feature","properties":{"name":"Thái Bình","adm0_a3":"VNM","kind":"province","scalerank":7},"geometry":{"type":"Point","coordinates":[106.370515,20.530304]}},{"type":"Feature","properties":{"name":"Ha Tinh","adm0_a3":"VNM","kind":"province","scalerank":7},"geometry":{"type":"Point","coordinates":[105.799413,18.35631]}},{"type":"Feature","properties":{"name":"Nghệ An","adm0_a3":"VNM","kind":"province","scalerank":7},"geometry":{"type":"Point","coordinates":[104.82738,19.354785]}},{"type":"Feature","properties":{"name":"Quảng Bình","adm0_a3":"VNM","kind":"province","scalerank":7},"geometry":{"type":"Point","coordinates":[106.356859,17.46908]}},{"type":"Feature","properties":{"name":"Đông Nam Bộ","adm0_a3":"VNM","kind":"province","scalerank":7},"geometry":{"type":"Point","coordinates":[107.178476,11.125786]}},{"type":"Feature","properties":{"name":"An Giang","adm0_a3":"VNM","kind":"province","scalerank":7},"geometry":{"type":"Point","coordinates":[105.153535,10.573581]}},{"type":"Feature","properties":{"name":"Đồng Tháp","adm0_a3":"VNM","kind":"province","scalerank":7},"geometry":{"type":"Point","coordinates":[105.707481,10.147696]}},{"type":"Feature","properties":{"name":"Ð?ng Tháp","adm0_a3":"VNM","kind":"province","scalerank":7},"geometry":{"type":"Point","coordinates":[105.586041,10.664393]}},{"type":"Feature","properties":{"name":"Long An","adm0_a3":"VNM","kind":"province","scalerank":7},"geometry":{"type":"Point","coordinates":[106.133889,10.686879]}},{"type":"Feature","properties":{"name":"đồng bằng sông Cửu Long","adm0_a3":"VNM","kind":"province","scalerank":7},"geometry":{"type":"Point","coordinates":[105.57183,9.93791]}},{"type":"Feature","properties":{"name":"Bạc Liêu","adm0_a3":"VNM","kind":"province","scalerank":7},"geometry":{"type":"Point","coordinates":[105.573329,9.339405]}},{"type":"Feature","properties":{"name":"Cà Mau","adm0_a3":"VNM","kind":"province","scalerank":7},"geometry":{"type":"Point","coordinates":[105.072894,9.055448]}},{"type":"Feature","properties":{"name":"Trà Vinh","adm0_a3":"VNM","kind":"province","scalerank":7},"geometry":{"type":"Point","coordinates":[106.288737,9.82817]}},{"type":"Feature","properties":{"name":"Vĩnh Long","adm0_a3":"VNM","kind":"province","scalerank":7},"geometry":{"type":"Point","coordinates":[105.969455,10.104234]}},{"type":"Feature","properties":{"name":"Cao Bằng","adm0_a3":"VNM","kind":"province","scalerank":7},"geometry":{"type":"Point","coordinates":[106.047253,22.759546]}},{"type":"Feature","properties":{"name":"Hà Giang","adm0_a3":"VNM","kind":"province","scalerank":7},"geometry":{"type":"Point","coordinates":[104.964632,22.765507]}},{"type":"Feature","properties":{"name":"Fujian","adm0_a3":"CHN","kind":"province","scalerank":2},"geometry":{"type":"Point","coordinates":[119.128057,25.062623]}},{"type":"Feature","properties":{"name":"Perak","adm0_a3":"MYS","kind":"province","scalerank":6},"geometry":{"type":"Point","coordinates":[101.059005,4.747374]}},{"type":"Feature","properties":{"name":"Dak Lak","adm0_a3":"VNM","kind":"province","scalerank":7},"geometry":{"type":"Point","coordinates":[108.132553,12.769085]}},{"type":"Feature","properties":{"name":"Gia Lai","adm0_a3":"VNM","kind":"province","scalerank":7},"geometry":{"type":"Point","coordinates":[108.155988,13.849316]}},{"type":"Feature","properties":{"name":"Sarawak","adm0_a3":"MYS","kind":"province","scalerank":6},"geometry":{"type":"Point","coordinates":[111.356413,2.571209]}},{"type":"Feature","properties":{"name":"Johor","adm0_a3":"MYS","kind":"province","scalerank":6},"geometry":{"type":"Point","coordinates":[104.175766,2.799338]}},{"type":"Feature","properties":{"name":"Selangor","adm0_a3":"MYS","kind":"province","scalerank":6},"geometry":{"type":"Point","coordinates":[101.254058,3.040848]}},{"type":"Feature","properties":{"name":"Sabah","adm0_a3":"MYS","kind":"province","scalerank":6},"geometry":{"type":"Point","coordinates":[117.770595,4.211215]}},{"type":"Feature","properties":{"name":"Labuan","adm0_a3":"MYS","kind":"province","scalerank":6},"geometry":{"type":"Point","coordinates":[115.209743,5.325192]}},{"type":"Feature","properties":{"name":"Pulau Pinang","adm0_a3":"MYS","kind":"province","scalerank":6},"geometry":{"type":"Point","coordinates":[100.261405,5.368386]}},{"type":"Feature","properties":{"name":"Kedah","adm0_a3":"MYS","kind":"province","scalerank":6},"geometry":{"type":"Point","coordinates":[99.81058,6.211113]}},{"type":"Feature","properties":{"name":"Perlis","adm0_a3":"MYS","kind":"province","scalerank":6},"geometry":{"type":"Point","coordinates":[100.25262,6.521688]}},{"type":"Feature","properties":{"name":"Kelantan","adm0_a3":"MYS","kind":"province","scalerank":6},"geometry":{"type":"Point","coordinates":[102.004839,5.403491]}},{"type":"Feature","properties":{"name":"Melaka","adm0_a3":"MYS","kind":"province","scalerank":6},"geometry":{"type":"Point","coordinates":[102.293348,2.321616]}},{"type":"Feature","properties":{"name":"Putrajaya","adm0_a3":"MYS","kind":"province","scalerank":6},"geometry":{"type":"Point","coordinates":[101.699018,2.929634]}},{"type":"Feature","properties":{"name":"Kuala Lumpur","adm0_a3":"MYS","kind":"province","scalerank":6},"geometry":{"type":"Point","coordinates":[101.692429,3.125319]}},{"type":"Feature","properties":{"name":"Negeri Sembilan","adm0_a3":"MYS","kind":"province","scalerank":6},"geometry":{"type":"Point","coordinates":[102.212888,2.819536]}},{"type":"Feature","properties":{"name":"Pahang","adm0_a3":"MYS","kind":"province","scalerank":6},"geometry":{"type":"Point","coordinates":[102.491166,3.845572]}},{"type":"Feature","properties":{"name":"Trengganu","adm0_a3":"MYS","kind":"province","scalerank":6},"geometry":{"type":"Point","coordinates":[103.013017,4.942143]}},{"type":"Feature","properties":{"name":"Guangdong","adm0_a3":"CHN","kind":"province","scalerank":2},"geometry":{"type":"Point","coordinates":[110.447812,20.627926]}},{"type":"Feature","properties":{"name":"Guangxi","adm0_a3":"CHN","kind":"province","scalerank":2},"geometry":{"type":"Point","coordinates":[109.113371,21.045436]}},{"type":"Feature","properties":{"name":"Gansu","adm0_a3":"CHN","kind":"province","scalerank":2},"geometry":{"type":"Point","coordinates":[100.734916,38.739253]}},{"type":"Feature","properties":{"name":"Qinghai","adm0_a3":"CHN","kind":"province","scalerank":2},"geometry":{"type":"Point","coordinates":[96.237749,35.265153]}},{"type":"Feature","properties":{"name":"Guizhou","adm0_a3":"CHN","kind":"province","scalerank":2},"geometry":{"type":"Point","coordinates":[106.55885,26.803269]}},{"type":"Feature","properties":{"name":"Chongqing","adm0_a3":"CHN","kind":"province","scalerank":2},"geometry":{"type":"Point","coordinates":[107.730329,30.017335]}},{"type":"Feature","properties":{"name":"Beijing","adm0_a3":"CHN","kind":"province","scalerank":2},"geometry":{"type":"Point","coordinates":[116.388679,39.948848]}},{"type":"Feature","properties":{"name":"Anhui","adm0_a3":"CHN","kind":"province","scalerank":2},"geometry":{"type":"Point","coordinates":[117.252849,31.953665]}},{"type":"Feature","properties":{"name":"Hainan","adm0_a3":"CHN","kind":"province","scalerank":2},"geometry":{"type":"Point","coordinates":[109.825214,19.186544]}},{"type":"Feature","properties":{"name":"Zhejiang","adm0_a3":"CHN","kind":"province","scalerank":2},"geometry":{"type":"Point","coordinates":[121.142921,27.835458]}},{"type":"Feature","properties":{"name":"Kayah","adm0_a3":"MMR","kind":"province","scalerank":6},"geometry":{"type":"Point","coordinates":[97.352642,19.265816]}},{"type":"Feature","properties":{"name":"Shanghai","adm0_a3":"CHN","kind":"province","scalerank":2},"geometry":{"type":"Point","coordinates":[121.838279,31.334041]}},{"type":"Feature","properties":{"name":"Jiangsu","adm0_a3":"CHN","kind":"province","scalerank":2},"geometry":{"type":"Point","coordinates":[119.809333,32.153272]}},{"type":"Feature","properties":{"name":"Shandong","adm0_a3":"CHN","kind":"province","scalerank":2},"geometry":{"type":"Point","coordinates":[120.74062,37.922898]}},{"type":"Feature","properties":{"name":"Liaoning","adm0_a3":"CHN","kind":"province","scalerank":2},"geometry":{"type":"Point","coordinates":[123.169567,39.058784]}},{"type":"Feature","properties":{"name":"Xizang","adm0_a3":"CHN","kind":"province","scalerank":2},"geometry":{"type":"Point","coordinates":[88.74477,27.540909]}},{"type":"Feature","properties":{"name":"Xinjiang Uygur","adm0_a3":"CHN","kind":"province","scalerank":2},"geometry":{"type":"Point","coordinates":[84.984508,41.305679]}},{"type":"Feature","properties":{"name":"Ningxia Hui","adm0_a3":"CHN","kind":"province","scalerank":2},"geometry":{"type":"Point","coordinates":[106.010098,35.444226]}},{"type":"Feature","properties":{"name":"Shaanxi","adm0_a3":"CHN","kind":"province","scalerank":2},"geometry":{"type":"Point","coordinates":[108.362642,33.771293]}},{"type":"Feature","properties":{"name":"Sichuan","adm0_a3":"CHN","kind":"province","scalerank":2},"geometry":{"type":"Point","coordinates":[102.942223,26.609819]}},{"type":"Feature","properties":{"name":"Yunnan","adm0_a3":"CHN","kind":"province","scalerank":2},"geometry":{"type":"Point","coordinates":[101.856553,24.208853]}},{"type":"Feature","properties":{"name":"Shanxi","adm0_a3":"CHN","kind":"province","scalerank":2},"geometry":{"type":"Point","coordinates":[112.389192,37.758574]}},{"type":"Feature","properties":{"name":"Hubei","adm0_a3":"CHN","kind":"province","scalerank":2},"geometry":{"type":"Point","coordinates":[112.263825,30.985667]}},{"type":"Feature","properties":{"name":"Hunan","adm0_a3":"CHN","kind":"province","scalerank":2},"geometry":{"type":"Point","coordinates":[111.511106,27.286775]}},{"type":"Feature","properties":{"name":"Hebei","adm0_a3":"CHN","kind":"province","scalerank":2},"geometry":{"type":"Point","coordinates":[116.644307,38.653489]}},{"type":"Feature","properties":{"name":"Henan","adm0_a3":"CHN","kind":"province","scalerank":2},"geometry":{"type":"Point","coordinates":[113.484422,33.905506]}},{"type":"Feature","properties":{"name":"Tianjin","adm0_a3":"CHN","kind":"province","scalerank":2},"geometry":{"type":"Point","coordinates":[117.346848,39.370767]}},{"type":"Feature","properties":{"name":"Jiangxi","adm0_a3":"CHN","kind":"province","scalerank":2},"geometry":{"type":"Point","coordinates":[116.017394,27.639671]}},{"type":"Feature","properties":{"name":"Jilin","adm0_a3":"CHN","kind":"province","scalerank":2},"geometry":{"type":"Point","coordinates":[126.465671,43.297759]}},{"type":"Feature","properties":{"name":"Nei Mongol","adm0_a3":"CHN","kind":"province","scalerank":2},"geometry":{"type":"Point","coordinates":[111.623373,41.593764]}},{"type":"Feature","properties":{"name":"Heilongjiang","adm0_a3":"CHN","kind":"province","scalerank":2},"geometry":{"type":"Point","coordinates":[127.96974,46.845093]}},{"type":"Feature","properties":{"name":"Tanintharyi","adm0_a3":"MMR","kind":"province","scalerank":6},"geometry":{"type":"Point","coordinates":[98.032756,9.812153]}},{"type":"Feature","properties":{"name":"Ayeyarwady","adm0_a3":"MMR","kind":"province","scalerank":6},"geometry":{"type":"Point","coordinates":[93.387458,14.111976]}},{"type":"Feature","properties":{"name":"Mon","adm0_a3":"MMR","kind":"province","scalerank":6},"geometry":{"type":"Point","coordinates":[97.66146,15.544649]}},{"type":"Feature","properties":{"name":"Rakhine","adm0_a3":"MMR","kind":"province","scalerank":6},"geometry":{"type":"Point","coordinates":[93.621552,18.809221]}},{"type":"Feature","properties":{"name":"Bokeo","adm0_a3":"LAO","kind":"province","scalerank":6},"geometry":{"type":"Point","coordinates":[100.671716,20.304395]}},{"type":"Feature","properties":{"name":"Louang Namtha","adm0_a3":"LAO","kind":"province","scalerank":6},"geometry":{"type":"Point","coordinates":[101.147708,20.909935]}},{"type":"Feature","properties":{"name":"Xaignabouri","adm0_a3":"LAO","kind":"province","scalerank":6},"geometry":{"type":"Point","coordinates":[101.142592,17.750178]}},{"type":"Feature","properties":{"name":"Kayin","adm0_a3":"MMR","kind":"province","scalerank":6},"geometry":{"type":"Point","coordinates":[97.65097,17.399589]}},{"type":"Feature","properties":{"name":"Mandalay","adm0_a3":"MMR","kind":"province","scalerank":6},"geometry":{"type":"Point","coordinates":[95.84431,20.592193]}},{"type":"Feature","properties":{"name":"Bago","adm0_a3":"MMR","kind":"province","scalerank":6},"geometry":{"type":"Point","coordinates":[96.148529,18.517994]}},{"type":"Feature","properties":{"name":"Yangon","adm0_a3":"MMR","kind":"province","scalerank":6},"geometry":{"type":"Point","coordinates":[96.111029,17.111708]}},{"type":"Feature","properties":{"name":"Chin","adm0_a3":"MMR","kind":"province","scalerank":6},"geometry":{"type":"Point","coordinates":[93.372678,21.926173]}},{"type":"Feature","properties":{"name":"Magway","adm0_a3":"MMR","kind":"province","scalerank":6},"geometry":{"type":"Point","coordinates":[94.8807,19.647325]}},{"type":"Feature","properties":{"name":"Shan","adm0_a3":"MMR","kind":"province","scalerank":6},"geometry":{"type":"Point","coordinates":[98.665895,21.771835]}},{"type":"Feature","properties":{"name":"Champasak","adm0_a3":"LAO","kind":"province","scalerank":6},"geometry":{"type":"Point","coordinates":[106.003122,14.109297]}},{"type":"Feature","properties":{"name":"Saravan","adm0_a3":"LAO","kind":"province","scalerank":6},"geometry":{"type":"Point","coordinates":[106.24812,15.761373]}},{"type":"Feature","properties":{"name":"Savannakhét","adm0_a3":"LAO","kind":"province","scalerank":6},"geometry":{"type":"Point","coordinates":[105.770888,16.493728]}},{"type":"Feature","properties":{"name":"Vientiane [prefecture]","adm0_a3":"LAO","kind":"province","scalerank":6},"geometry":{"type":"Point","coordinates":[102.563125,18.102978]}},{"type":"Feature","properties":{"name":"Vientiane","adm0_a3":"LAO","kind":"province","scalerank":6},"geometry":{"type":"Point","coordinates":[102.156483,18.918567]}},{"type":"Feature","properties":{"name":"Xiangkhoang","adm0_a3":"LAO","kind":"province","scalerank":6},"geometry":{"type":"Point","coordinates":[103.460125,19.511269]}},{"type":"Feature","properties":{"name":"Houaphan","adm0_a3":"LAO","kind":"province","scalerank":6},"geometry":{"type":"Point","coordinates":[104.039107,20.372946]}},{"type":"Feature","properties":{"name":"Louangphrabang","adm0_a3":"LAO","kind":"province","scalerank":6},"geometry":{"type":"Point","coordinates":[102.548914,20.0788]}},{"type":"Feature","properties":{"name":"Oudômxai","adm0_a3":"LAO","kind":"province","scalerank":6},"geometry":{"type":"Point","coordinates":[101.548407,20.160968]}},{"type":"Feature","properties":{"name":"Phôngsali","adm0_a3":"LAO","kind":"province","scalerank":6},"geometry":{"type":"Point","coordinates":[102.24516,21.615269]}},{"type":"Feature","properties":{"name":"Bolikhamxai","adm0_a3":"LAO","kind":"province","scalerank":6},"geometry":{"type":"Point","coordinates":[104.039314,18.537951]}},{"type":"Feature","properties":{"name":"Khammouan","adm0_a3":"LAO","kind":"province","scalerank":6},"geometry":{"type":"Point","coordinates":[105.342852,17.615092]}},{"type":"Feature","properties":{"name":"Attapu","adm0_a3":"LAO","kind":"province","scalerank":6},"geometry":{"type":"Point","coordinates":[106.86555,14.784828]}},{"type":"Feature","properties":{"name":"Xékong","adm0_a3":"LAO","kind":"province","scalerank":6},"geometry":{"type":"Point","coordinates":[106.982132,15.641373]}},{"type":"Feature","properties":{"name":"Kachin","adm0_a3":"MMR","kind":"province","scalerank":6},"geometry":{"type":"Point","coordinates":[97.297762,25.792585]}},{"type":"Feature","properties":{"name":"Sagaing","adm0_a3":"MMR","kind":"province","scalerank":6},"geometry":{"type":"Point","coordinates":[95.52588,24.282067]}},{"type":"Feature","properties":{"name":"Hải Phòng","adm0_a3":"VNM","kind":"province","scalerank":7},"geometry":{"type":"Point","coordinates":[106.634914,20.789972]}},{"type":"Feature","properties":{"name":"Đắk Nông","adm0_a3":"VNM","kind":"province","scalerank":7},"geometry":{"type":"Point","coordinates":[107.654822,12.115742]}},{"type":"Feature","properties":{"name":"Lai Chau","adm0_a3":"VNM","kind":"province","scalerank":7},"geometry":{"type":"Point","coordinates":[103.255393,22.312216]}},{"type":"Feature","properties":{"name":"Xiamen","adm0_a3":"CHN","kind":"city","scalerank":4},"geometry":{"type":"Point","coordinates":[118.078071,24.451938]}},{"type":"Feature","properties":{"name":"Nanchong","adm0_a3":"CHN","kind":"city","scalerank":4},"geometry":{"type":"Point","coordinates":[106.128051,30.782378]}},{"type":"Feature","properties":{"name":"Neijiang","adm0_a3":"CHN","kind":"city","scalerank":4},"geometry":{"type":"Point","coordinates":[105.048066,29.582323]}},{"type":"Feature","properties":{"name":"Nanyang","adm0_a3":"CHN","kind":"city","scalerank":4},"geometry":{"type":"Point","coordinates":[112.528074,33.002346]}},{"type":"Feature","properties":{"name":"Jinxi","adm0_a3":"CHN","kind":"city","scalerank":4},"geometry":{"type":"Point","coordinates":[120.828033,40.752287]}},{"type":"Feature","properties":{"name":"Yantai","adm0_a3":"CHN","kind":"city","scalerank":4},"geometry":{"type":"Point","coordinates":[121.398075,37.532354]}},{"type":"Feature","properties":{"name":"Zaozhuang","adm0_a3":"CHN","kind":"city","scalerank":4},"geometry":{"type":"Point","coordinates":[117.568077,34.881947]}},{"type":"Feature","properties":{"name":"Suzhou","adm0_a3":"CHN","kind":"city","scalerank":4},"geometry":{"type":"Point","coordinates":[120.618071,31.302424]}},{"type":"Feature","properties":{"name":"Xuzhou","adm0_a3":"CHN","kind":"city","scalerank":4},"geometry":{"type":"Point","coordinates":[117.178074,34.281958]}},{"type":"Feature","properties":{"name":"Wuxi","adm0_a3":"CHN","kind":"city","scalerank":4},"geometry":{"type":"Point","coordinates":[120.298039,31.581942]}},{"type":"Feature","properties":{"name":"Jilin","adm0_a3":"CHN","kind":"city","scalerank":4},"geometry":{"type":"Point","coordinates":[126.548097,43.851917]}},{"type":"Feature","properties":{"name":"Haiphong","adm0_a3":"VNM","kind":"city","scalerank":4},"geometry":{"type":"Point","coordinates":[106.678147,20.831952]}},{"type":"Feature","properties":{"name":"Da Nang","adm0_a3":"VNM","kind":"city","scalerank":4},"geometry":{"type":"Point","coordinates":[108.249971,16.060039]}},{"type":"Feature","properties":{"name":"Surat Thani","adm0_a3":"THA","kind":"city","scalerank":4},"geometry":{"type":"Point","coordinates":[99.340127,9.150099]}},{"type":"Feature","properties":{"name":"Chiang Mai","adm0_a3":"THA","kind":"city","scalerank":4},"geometry":{"type":"Point","coordinates":[98.980046,18.799975]}},{"type":"Feature","properties":{"name":"Nakhon Ratchasima","adm0_a3":"THA","kind":"city","scalerank":4},"geometry":{"type":"Point","coordinates":[102.10001,15.000026]}},{"type":"Feature","properties":{"name":"Zamboanga","adm0_a3":"PHL","kind":"city","scalerank":4},"geometry":{"type":"Point","coordinates":[122.078085,6.921923]}},{"type":"Feature","properties":{"name":"Laoag","adm0_a3":"PHL","kind":"city","scalerank":4},"geometry":{"type":"Point","coordinates":[120.59361,18.198849]}},{"type":"Feature","properties":{"name":"Baguio","adm0_a3":"PHL","kind":"city","scalerank":4},"geometry":{"type":"Point","coordinates":[120.569943,16.429991]}},{"type":"Feature","properties":{"name":"General Santos","adm0_a3":"PHL","kind":"city","scalerank":4},"geometry":{"type":"Point","coordinates":[125.174726,6.110827]}},{"type":"Feature","properties":{"name":"George Town","adm0_a3":"MYS","kind":"city","scalerank":4},"geometry":{"type":"Point","coordinates":[100.329368,5.413613]}},{"type":"Feature","properties":{"name":"Zhangye","adm0_a3":"CHN","kind":"city","scalerank":4},"geometry":{"type":"Point","coordinates":[100.450034,38.929987]}},{"type":"Feature","properties":{"name":"Wuwei","adm0_a3":"CHN","kind":"city","scalerank":4},"geometry":{"type":"Point","coordinates":[102.641011,37.928007]}},{"type":"Feature","properties":{"name":"Dunhuang","adm0_a3":"CHN","kind":"city","scalerank":4},"geometry":{"type":"Point","coordinates":[94.662015,40.142678]}},{"type":"Feature","properties":{"name":"Tianshui","adm0_a3":"CHN","kind":"city","scalerank":4},"geometry":{"type":"Point","coordinates":[105.918038,34.601964]}},{"type":"Feature","properties":{"name":"Dulan","adm0_a3":"CHN","kind":"city","scalerank":4},"geometry":{"type":"Point","coordinates":[98.266601,36.16659]}},{"type":"Feature","properties":{"name":"Golmud","adm0_a3":"CHN","kind":"city","scalerank":4},"geometry":{"type":"Point","coordinates":[94.883345,36.416626]}},{"type":"Feature","properties":{"name":"Yulin","adm0_a3":"CHN","kind":"city","scalerank":4},"geometry":{"type":"Point","coordinates":[110.148064,22.63192]}},{"type":"Feature","properties":{"name":"Bose","adm0_a3":"CHN","kind":"city","scalerank":4},"geometry":{"type":"Point","coordinates":[106.613327,23.899716]}},{"type":"Feature","properties":{"name":"Wuzhou","adm0_a3":"CHN","kind":"city","scalerank":4},"geometry":{"type":"Point","coordinates":[111.320016,23.480025]}},{"type":"Feature","properties":{"name":"Liupanshui","adm0_a3":"CHN","kind":"city","scalerank":4},"geometry":{"type":"Point","coordinates":[104.831386,26.596381]}},{"type":"Feature","properties":{"name":"Quanzhou","adm0_a3":"CHN","kind":"city","scalerank":4},"geometry":{"type":"Point","coordinates":[118.578041,24.901962]}},{"type":"Feature","properties":{"name":"Hefei","adm0_a3":"CHN","kind":"city","scalerank":4},"geometry":{"type":"Point","coordinates":[117.278068,31.851977]}},{"type":"Feature","properties":{"name":"Zhanjiang","adm0_a3":"CHN","kind":"city","scalerank":4},"geometry":{"type":"Point","coordinates":[110.378076,21.20193]}},{"type":"Feature","properties":{"name":"Shaoguan","adm0_a3":"CHN","kind":"city","scalerank":4},"geometry":{"type":"Point","coordinates":[113.579982,24.799971]}},{"type":"Feature","properties":{"name":"Kuching","adm0_a3":"MYS","kind":"city","scalerank":4},"geometry":{"type":"Point","coordinates":[110.329999,1.52997]}},{"type":"Feature","properties":{"name":"Xigaze","adm0_a3":"CHN","kind":"city","scalerank":4},"geometry":{"type":"Point","coordinates":[88.88335,29.250009]}},{"type":"Feature","properties":{"name":"Shache","adm0_a3":"CHN","kind":"city","scalerank":4},"geometry":{"type":"Point","coordinates":[77.250003,38.426142]}},{"type":"Feature","properties":{"name":"Yining","adm0_a3":"CHN","kind":"city","scalerank":4},"geometry":{"type":"Point","coordinates":[81.350011,43.900019]}},{"type":"Feature","properties":{"name":"Altay","adm0_a3":"CHN","kind":"city","scalerank":4},"geometry":{"type":"Point","coordinates":[88.116626,47.866599]}},{"type":"Feature","properties":{"name":"Putrajaya","adm0_a3":"MYS","kind":"city","scalerank":4},"geometry":{"type":"Point","coordinates":[101.695037,2.932515]}},{"type":"Feature","properties":{"name":"Shizuishan","adm0_a3":"CHN","kind":"city","scalerank":4},"geometry":{"type":"Point","coordinates":[106.769028,39.233276]}},{"type":"Feature","properties":{"name":"Ankang","adm0_a3":"CHN","kind":"city","scalerank":4},"geometry":{"type":"Point","coordinates":[109.020002,32.679981]}},{"type":"Feature","properties":{"name":"Houma","adm0_a3":"CHN","kind":"city","scalerank":4},"geometry":{"type":"Point","coordinates":[111.209997,35.619982]}},{"type":"Feature","properties":{"name":"Yueyang","adm0_a3":"CHN","kind":"city","scalerank":4},"geometry":{"type":"Point","coordinates":[113.098065,29.381999]}},{"type":"Feature","properties":{"name":"Hengyang","adm0_a3":"CHN","kind":"city","scalerank":4},"geometry":{"type":"Point","coordinates":[112.58807,26.881971]}},{"type":"Feature","properties":{"name":"Mianyang","adm0_a3":"CHN","kind":"city","scalerank":4},"geometry":{"type":"Point","coordinates":[104.689993,31.464828]}},{"type":"Feature","properties":{"name":"Xichang","adm0_a3":"CHN","kind":"city","scalerank":4},"geometry":{"type":"Point","coordinates":[102.299998,27.880015]}},{"type":"Feature","properties":{"name":"Baoshan","adm0_a3":"CHN","kind":"city","scalerank":4},"geometry":{"type":"Point","coordinates":[99.15001,25.119977]}},{"type":"Feature","properties":{"name":"Gejiu","adm0_a3":"CHN","kind":"city","scalerank":4},"geometry":{"type":"Point","coordinates":[103.150076,23.37998]}},{"type":"Feature","properties":{"name":"Shijiazhuang","adm0_a3":"CHN","kind":"city","scalerank":4},"geometry":{"type":"Point","coordinates":[114.478032,38.05196]}},{"type":"Feature","properties":{"name":"Handan","adm0_a3":"CHN","kind":"city","scalerank":4},"geometry":{"type":"Point","coordinates":[114.478032,36.581921]}},{"type":"Feature","properties":{"name":"Anshan","adm0_a3":"CHN","kind":"city","scalerank":4},"geometry":{"type":"Point","coordinates":[122.938085,41.116967]}},{"type":"Feature","properties":{"name":"Dalian","adm0_a3":"CHN","kind":"city","scalerank":4},"geometry":{"type":"Point","coordinates":[121.627885,38.924784]}},{"type":"Feature","properties":{"name":"Qingdao","adm0_a3":"CHN","kind":"city","scalerank":4},"geometry":{"type":"Point","coordinates":[120.328063,36.091925]}},{"type":"Feature","properties":{"name":"Linyi","adm0_a3":"CHN","kind":"city","scalerank":4},"geometry":{"type":"Point","coordinates":[118.32803,35.081935]}},{"type":"Feature","properties":{"name":"Huaiyin","adm0_a3":"CHN","kind":"city","scalerank":4},"geometry":{"type":"Point","coordinates":[119.065967,33.585165]}},{"type":"Feature","properties":{"name":"Wenzhou","adm0_a3":"CHN","kind":"city","scalerank":4},"geometry":{"type":"Point","coordinates":[120.648147,28.021927]}},{"type":"Feature","properties":{"name":"Ningbo","adm0_a3":"CHN","kind":"city","scalerank":4},"geometry":{"type":"Point","coordinates":[121.548092,29.881917]}},{"type":"Feature","properties":{"name":"Tongliao","adm0_a3":"CHN","kind":"city","scalerank":4},"geometry":{"type":"Point","coordinates":[122.268048,43.621905]}},{"type":"Feature","properties":{"name":"Hohhot","adm0_a3":"CHN","kind":"city","scalerank":4},"geometry":{"type":"Point","coordinates":[111.65805,40.821921]}},{"type":"Feature","properties":{"name":"Chifeng","adm0_a3":"CHN","kind":"city","scalerank":4},"geometry":{"type":"Point","coordinates":[118.948044,42.271961]}},{"type":"Feature","properties":{"name":"Ulan Hot","adm0_a3":"CHN","kind":"city","scalerank":4},"geometry":{"type":"Point","coordinates":[122.080031,46.080016]}},{"type":"Feature","properties":{"name":"Hailar","adm0_a3":"CHN","kind":"city","scalerank":4},"geometry":{"type":"Point","coordinates":[119.700022,49.19998]}},{"type":"Feature","properties":{"name":"Jiamusi","adm0_a3":"CHN","kind":"city","scalerank":4},"geometry":{"type":"Point","coordinates":[130.348072,46.831967]}},{"type":"Feature","properties":{"name":"Bei'an","adm0_a3":"CHN","kind":"city","scalerank":4},"geometry":{"type":"Point","coordinates":[126.528604,48.246263]}},{"type":"Feature","properties":{"name":"Daqing","adm0_a3":"CHN","kind":"city","scalerank":4},"geometry":{"type":"Point","coordinates":[124.998062,46.581905]}},{"type":"Feature","properties":{"name":"Jixi","adm0_a3":"CHN","kind":"city","scalerank":4},"geometry":{"type":"Point","coordinates":[130.968085,45.301906]}},{"type":"Feature","properties":{"name":"Battambang","adm0_a3":"KHM","kind":"city","scalerank":4},"geometry":{"type":"Point","coordinates":[103.200047,13.100013]}},{"type":"Feature","properties":{"name":"Siem Reap","adm0_a3":"KHM","kind":"city","scalerank":4},"geometry":{"type":"Point","coordinates":[103.850033,13.366638]}},{"type":"Feature","properties":{"name":"Mandalay","adm0_a3":"MMR","kind":"city","scalerank":4},"geometry":{"type":"Point","coordinates":[96.083083,21.971934]}},{"type":"Feature","properties":{"name":"Sittwe","adm0_a3":"MMR","kind":"city","scalerank":4},"geometry":{"type":"Point","coordinates":[92.880005,20.139997]}},{"type":"Feature","properties":{"name":"Cebu","adm0_a3":"PHL","kind":"city","scalerank":3},"geometry":{"type":"Point","coordinates":[123.898129,10.321922]}},{"type":"Feature","properties":{"name":"Iloilo","adm0_a3":"PHL","kind":"city","scalerank":3},"geometry":{"type":"Point","coordinates":[122.545016,10.705043]}},{"type":"Feature","properties":{"name":"Davao","adm0_a3":"PHL","kind":"city","scalerank":3},"geometry":{"type":"Point","coordinates":[125.62805,7.111963]}},{"type":"Feature","properties":{"name":"Jiayuguan","adm0_a3":"CHN","kind":"city","scalerank":3},"geometry":{"type":"Point","coordinates":[98.299984,39.82001]}},{"type":"Feature","properties":{"name":"Xining","adm0_a3":"CHN","kind":"city","scalerank":3},"geometry":{"type":"Point","coordinates":[101.768059,36.621944]}},{"type":"Feature","properties":{"name":"Guilin","adm0_a3":"CHN","kind":"city","scalerank":3},"geometry":{"type":"Point","coordinates":[110.278082,25.281939]}},{"type":"Feature","properties":{"name":"Huainan","adm0_a3":"CHN","kind":"city","scalerank":3},"geometry":{"type":"Point","coordinates":[116.978035,32.63193]}},{"type":"Feature","properties":{"name":"Shantou","adm0_a3":"CHN","kind":"city","scalerank":3},"geometry":{"type":"Point","coordinates":[116.66808,23.371952]}},{"type":"Feature","properties":{"name":"Lhasa","adm0_a3":"CHN","kind":"city","scalerank":3},"geometry":{"type":"Point","coordinates":[91.10001,29.645024]}},{"type":"Feature","properties":{"name":"Hami","adm0_a3":"CHN","kind":"city","scalerank":3},"geometry":{"type":"Point","coordinates":[93.515005,42.826984]}},{"type":"Feature","properties":{"name":"Hotan","adm0_a3":"CHN","kind":"city","scalerank":3},"geometry":{"type":"Point","coordinates":[79.926945,37.099711]}},{"type":"Feature","properties":{"name":"Kashgar","adm0_a3":"CHN","kind":"city","scalerank":3},"geometry":{"type":"Point","coordinates":[75.969926,39.476336]}},{"type":"Feature","properties":{"name":"Yinchuan","adm0_a3":"CHN","kind":"city","scalerank":3},"geometry":{"type":"Point","coordinates":[106.271092,38.46992]}},{"type":"Feature","properties":{"name":"Pingxiang","adm0_a3":"CHN","kind":"city","scalerank":3},"geometry":{"type":"Point","coordinates":[113.848097,27.621951]}},{"type":"Feature","properties":{"name":"Qiqihar","adm0_a3":"CHN","kind":"city","scalerank":3},"geometry":{"type":"Point","coordinates":[123.988046,47.346923]}},{"type":"Feature","properties":{"name":"Vientiane","adm0_a3":"LAO","kind":"city","scalerank":3},"geometry":{"type":"Point","coordinates":[102.59998,17.966693]}},{"type":"Feature","properties":{"name":"Phnom Penh","adm0_a3":"KHM","kind":"city","scalerank":3},"geometry":{"type":"Point","coordinates":[104.914689,11.551976]}},{"type":"Feature","properties":{"name":"Naypyidaw","adm0_a3":"MMR","kind":"city","scalerank":3},"geometry":{"type":"Point","coordinates":[96.116673,19.768503]}},{"type":"Feature","properties":{"name":"Shenzhen","adm0_a3":"CHN","kind":"city","scalerank":2},"geometry":{"type":"Point","coordinates":[114.061154,22.548097]}},{"type":"Feature","properties":{"name":"Zibo","adm0_a3":"CHN","kind":"city","scalerank":2},"geometry":{"type":"Point","coordinates":[117.99646,36.821365]}},{"type":"Feature","properties":{"name":"Hanoi","adm0_a3":"VNM","kind":"city","scalerank":2},"geometry":{"type":"Point","coordinates":[105.848068,21.035273]}},{"type":"Feature","properties":{"name":"Ho Chi Minh City","adm0_a3":"VNM","kind":"city","scalerank":2},"geometry":{"type":"Point","coordinates":[106.702985,10.762125]}},{"type":"Feature","properties":{"name":"Kuala Lumpur","adm0_a3":"MYS","kind":"city","scalerank":2},"geometry":{"type":"Point","coordinates":[101.688699,3.139797]}},{"type":"Feature","properties":{"name":"Lanzhou","adm0_a3":"CHN","kind":"city","scalerank":2},"geometry":{"type":"Point","coordinates":[103.790054,36.057974]}},{"type":"Feature","properties":{"name":"Nanning","adm0_a3":"CHN","kind":"city","scalerank":2},"geometry":{"type":"Point","coordinates":[108.318099,22.821934]}},{"type":"Feature","properties":{"name":"Guiyang","adm0_a3":"CHN","kind":"city","scalerank":2},"geometry":{"type":"Point","coordinates":[106.718093,26.581989]}},{"type":"Feature","properties":{"name":"Chongqing","adm0_a3":"CHN","kind":"city","scalerank":2},"geometry":{"type":"Point","coordinates":[106.593036,29.566923]}},{"type":"Feature","properties":{"name":"Fuzhou","adm0_a3":"CHN","kind":"city","scalerank":2},"geometry":{"type":"Point","coordinates":[119.2981,26.081942]}},{"type":"Feature","properties":{"name":"Guangzhou","adm0_a3":"CHN","kind":"city","scalerank":2},"geometry":{"type":"Point","coordinates":[113.261785,23.124723]}},{"type":"Feature","properties":{"name":"Dongguan","adm0_a3":"CHN","kind":"city","scalerank":2},"geometry":{"type":"Point","coordinates":[113.750474,23.021537]}},{"type":"Feature","properties":{"name":"Xian","adm0_a3":"CHN","kind":"city","scalerank":2},"geometry":{"type":"Point","coordinates":[108.89305,34.276971]}},{"type":"Feature","properties":{"name":"Taiyuan","adm0_a3":"CHN","kind":"city","scalerank":2},"geometry":{"type":"Point","coordinates":[112.543112,37.876958]}},{"type":"Feature","properties":{"name":"Wuhan","adm0_a3":"CHN","kind":"city","scalerank":2},"geometry":{"type":"Point","coordinates":[114.268071,30.581977]}},{"type":"Feature","properties":{"name":"Changsha","adm0_a3":"CHN","kind":"city","scalerank":2},"geometry":{"type":"Point","coordinates":[112.968047,28.201916]}},{"type":"Feature","properties":{"name":"Kunming","adm0_a3":"CHN","kind":"city","scalerank":2},"geometry":{"type":"Point","coordinates":[102.69744,25.042859]}},{"type":"Feature","properties":{"name":"Zhengzhou","adm0_a3":"CHN","kind":"city","scalerank":2},"geometry":{"type":"Point","coordinates":[113.663147,34.756942]}},{"type":"Feature","properties":{"name":"Shenyeng","adm0_a3":"CHN","kind":"city","scalerank":2},"geometry":{"type":"Point","coordinates":[123.448028,41.806925]}},{"type":"Feature","properties":{"name":"Jinan","adm0_a3":"CHN","kind":"city","scalerank":2},"geometry":{"type":"Point","coordinates":[116.993073,36.676928]}},{"type":"Feature","properties":{"name":"Tianjin","adm0_a3":"CHN","kind":"city","scalerank":2},"geometry":{"type":"Point","coordinates":[117.196607,39.082772]}},{"type":"Feature","properties":{"name":"Nanchang","adm0_a3":"CHN","kind":"city","scalerank":2},"geometry":{"type":"Point","coordinates":[115.87805,28.681938]}},{"type":"Feature","properties":{"name":"Nanjing","adm0_a3":"CHN","kind":"city","scalerank":2},"geometry":{"type":"Point","coordinates":[118.778029,32.051965]}},{"type":"Feature","properties":{"name":"Hangzhou","adm0_a3":"CHN","kind":"city","scalerank":2},"geometry":{"type":"Point","coordinates":[120.168073,30.25192]}},{"type":"Feature","properties":{"name":"Changchun","adm0_a3":"CHN","kind":"city","scalerank":2},"geometry":{"type":"Point","coordinates":[125.338042,43.866954]}},{"type":"Feature","properties":{"name":"Baotou","adm0_a3":"CHN","kind":"city","scalerank":2},"geometry":{"type":"Point","coordinates":[109.820074,40.654153]}},{"type":"Feature","properties":{"name":"Harbin","adm0_a3":"CHN","kind":"city","scalerank":2},"geometry":{"type":"Point","coordinates":[126.648039,45.75193]}},{"type":"Feature","properties":{"name":"Yangon","adm0_a3":"MMR","kind":"city","scalerank":2},"geometry":{"type":"Point","coordinates":[96.164732,16.7853]}},{"type":"Feature","properties":{"name":"Bangkok","adm0_a3":"THA","kind":"city","scalerank":1},"geometry":{"type":"Point","coordinates":[100.514699,13.751945]}},{"type":"Feature","properties":{"name":"Manila","adm0_a3":"PHL","kind":"city","scalerank":1},"geometry":{"type":"Point","coordinates":[120.980271,14.606105]}},{"type":"Feature","properties":{"name":"Ürümqi","adm0_a3":"CHN","kind":"city","scalerank":1},"geometry":{"type":"Point","coordinates":[87.57306,43.806958]}},{"type":"Feature","properties":{"name":"Chengdu","adm0_a3":"CHN","kind":"city","scalerank":1},"geometry":{"type":"Point","coordinates":[104.068074,30.671946]}}]}